STARLINK-3128
1 29441C 21104AK  21325.18975335 -.00843734  00000-0 -27913-2 0  3252
2 29441  53.2175  95.6624 0032859  63.5604 162.6496 15.89537683    10
